[{"OBJECT_NAME":"BEIDOU-2 G1","OBJECT_ID":"2010-001A","EPOCH":"2026-04-26T13:29:20.256864","MEAN_MOTION":1.00269216,"ECCENTRICITY":0.0003626,"INCLINATION":4.1749,"RA_OF_ASC_NODE":60.5468,"ARG_OF_PERICENTER":295.2294,"MEAN_ANOMALY":201.5803,"EPHEMERIS_TYPE":0,"CLASSIFICATION_TYPE":"U","NORAD_CAT_ID":36287,"ELEMENT_SET_NO":999,"REV_AT_EPOCH":5965,"BSTAR":0,"MEAN_MOTION_DOT":-2.89e-6,"MEAN_MOTION_DDOT":0},{"OBJECT_NAME":"SDO","OBJECT_ID":"2010-005A","EPOCH":"2026-04-25T09:58:43.614048","MEAN_MOTION":1.0027261,"ECCENTRICITY":0.00011198,"INCLINATION":34.5445,"RA_OF_ASC_NODE":87.1361,"ARG_OF_PERICENTER":34.5839,"MEAN_ANOMALY":139.6162,"EPHEMERIS_TYPE":0,"CLASSIFICATION_TYPE":"U","NORAD_CAT_ID":36395,"ELEMENT_SET_NO":999,"REV_AT_EPOCH":5953,"BSTAR":0,"MEAN_MOTION_DOT":-6.0e-7,"MEAN_MOTION_DDOT":0},{"OBJECT_NAME":"INTELSAT 16 (IS-16)","OBJECT_ID":"2010-006A","EPOCH":"2026-04-26T11:29:36.940128","MEAN_MOTION":1.00270165,"ECCENTRICITY":0.0002039,"INCLINATION":0.0176,"RA_OF_ASC_NODE":279.868,"ARG_OF_PERICENTER":145.6722,"MEAN_ANOMALY":245.1504,"EPHEMERIS_TYPE":0,"CLASSIFICATION_TYPE":"U","NORAD_CAT_ID":36397,"ELEMENT_SET_NO":999,"REV_AT_EPOCH":5913,"BSTAR":0,"MEAN_MOTION_DOT":-2.57e-6,"MEAN_MOTION_DDOT":0},{"OBJECT_NAME":"EWS-G2 (GOES 15)","OBJECT_ID":"2010-008A","EPOCH":"2026-04-26T12:09:25.621920","MEAN_MOTION":1.00272457,"ECCENTRICITY":0.0003975,"INCLINATION":1.1417,"RA_OF_ASC_NODE":83.7896,"ARG_OF_PERICENTER":23.7725,"MEAN_ANOMALY":352.5592,"EPHEMERIS_TYPE":0,"CLASSIFICATION_TYPE":"U","NORAD_CAT_ID":36411,"ELEMENT_SET_NO":999,"REV_AT_EPOCH":5912,"BSTAR":0,"MEAN_MOTION_DOT":1.1e-7,"MEAN_MOTION_DDOT":0},{"OBJECT_NAME":"ECHOSTAR 14","OBJECT_ID":"2010-010A","EPOCH":"2026-04-26T12:29:35.587392","MEAN_MOTION":1.00270413,"ECCENTRICITY":0.0001712,"INCLINATION":0.0188,"RA_OF_ASC_NODE":250.4958,"ARG_OF_PERICENTER":158.9339,"MEAN_ANOMALY":233.5888,"EPHEMERIS_TYPE":0,"CLASSIFICATION_TYPE":"U","NORAD_CAT_ID":36499,"ELEMENT_SET_NO":999,"REV_AT_EPOCH":4603,"BSTAR":0,"MEAN_MOTION_DOT":-1.2e-7,"MEAN_MOTION_DDOT":0},{"OBJECT_NAME":"SES-1","OBJECT_ID":"2010-016A","EPOCH":"2026-04-26T11:22:30.123264","MEAN_MOTION":1.00272,"ECCENTRICITY":0.0002591,"INCLINATION":0.024,"RA_OF_ASC_NODE":289.3603,"ARG_OF_PERICENTER":105.6045,"MEAN_ANOMALY":249.1318,"EPHEMERIS_TYPE":0,"CLASSIFICATION_TYPE":"U","NORAD_CAT_ID":36516,"ELEMENT_SET_NO":999,"REV_AT_EPOCH":5851,"BSTAR":0,"MEAN_MOTION_DOT":-1.27e-6,"MEAN_MOTION_DDOT":0},{"OBJECT_NAME":"ASTRA 3B","OBJECT_ID":"2010-021A","EPOCH":"2026-04-26T11:58:04.211040","MEAN_MOTION":1.00269039,"ECCENTRICITY":0.0003905,"INCLINATION":1.3364,"RA_OF_ASC_NODE":84.1416,"ARG_OF_PERICENTER":319.859,"MEAN_ANOMALY":13.5384,"EPHEMERIS_TYPE":0,"CLASSIFICATION_TYPE":"U","NORAD_CAT_ID":36581,"ELEMENT_SET_NO":999,"REV_AT_EPOCH":5834,"BSTAR":0,"MEAN_MOTION_DOT":1.26e-6,"MEAN_MOTION_DDOT":0},{"OBJECT_NAME":"COMSATBW-2","OBJECT_ID":"2010-021B","EPOCH":"2026-04-26T07:41:38.639904","MEAN_MOTION":1.00268743,"ECCENTRICITY":0.0002632,"INCLINATION":0.0158,"RA_OF_ASC_NODE":242.2319,"ARG_OF_PERICENTER":161.9168,"MEAN_ANOMALY":298.7636,"EPHEMERIS_TYPE":0,"CLASSIFICATION_TYPE":"U","NORAD_CAT_ID":36582,"ELEMENT_SET_NO":999,"REV_AT_EPOCH":5843,"BSTAR":0,"MEAN_MOTION_DOT":7.5e-7,"MEAN_MOTION_DDOT":0},{"OBJECT_NAME":"BEIDOU-2 G3","OBJECT_ID":"2010-024A","EPOCH":"2026-04-26T08:48:48.894912","MEAN_MOTION":1.00269965,"ECCENTRICITY":0.0008549,"INCLINATION":4.3954,"RA_OF_ASC_NODE":61.7181,"ARG_OF_PERICENTER":336.9021,"MEAN_ANOMALY":27.591,"EPHEMERIS_TYPE":0,"CLASSIFICATION_TYPE":"U","NORAD_CAT_ID":36590,"ELEMENT_SET_NO":999,"REV_AT_EPOCH":5825,"BSTAR":0,"MEAN_MOTION_DOT":-1.44e-6,"MEAN_MOTION_DDOT":0},{"OBJECT_NAME":"BADR-5","OBJECT_ID":"2010-025A","EPOCH":"2026-04-26T11:58:41.653344","MEAN_MOTION":1.00272695,"ECCENTRICITY":0.0003111,"INCLINATION":0.0641,"RA_OF_ASC_NODE":101.5861,"ARG_OF_PERICENTER":337.4221,"MEAN_ANOMALY":341.1432,"EPHEMERIS_TYPE":0,"CLASSIFICATION_TYPE":"U","NORAD_CAT_ID":36592,"ELEMENT_SET_NO":999,"REV_AT_EPOCH":5269,"BSTAR":0,"MEAN_MOTION_DOT":1.33e-6,"MEAN_MOTION_DDOT":0},{"OBJECT_NAME":"COMS 1","OBJECT_ID":"2010-032A","EPOCH":"2026-04-26T09:02:32.578080","MEAN_MOTION":1.00272579,"ECCENTRICITY":0.000105,"INCLINATION":4.6739,"RA_OF_ASC_NODE":76.0456,"ARG_OF_PERICENTER":308.9312,"MEAN_ANOMALY":93.1775,"EPHEMERIS_TYPE":0,"CLASSIFICATION_TYPE":"U","NORAD_CAT_ID":36744,"ELEMENT_SET_NO":999,"REV_AT_EPOCH":5057,"BSTAR":0,"MEAN_MOTION_DOT":-3.53e-6,"MEAN_MOTION_DDOT":0},{"OBJECT_NAME":"ARABSAT-5A","OBJECT_ID":"2010-032B","EPOCH":"2026-04-26T12:00:04.021056","MEAN_MOTION":1.00269386,"ECCENTRICITY":0.0004345,"INCLINATION":0.0727,"RA_OF_ASC_NODE":48.1891,"ARG_OF_PERICENTER":15.1236,"MEAN_ANOMALY":1.7113,"EPHEMERIS_TYPE":0,"CLASSIFICATION_TYPE":"U","NORAD_CAT_ID":36745,"ELEMENT_SET_NO":999,"REV_AT_EPOCH":5812,"BSTAR":0,"MEAN_MOTION_DOT":1.41e-6,"MEAN_MOTION_DDOT":0},{"OBJECT_NAME":"ECHOSTAR 15","OBJECT_ID":"2010-034A","EPOCH":"2026-04-26T12:23:31.426080","MEAN_MOTION":1.00271374,"ECCENTRICITY":0.0002007,"INCLINATION":0.0164,"RA_OF_ASC_NODE":258.6609,"ARG_OF_PERICENTER":135.1376,"MEAN_ANOMALY":247.801,"EPHEMERIS_TYPE":0,"CLASSIFICATION_TYPE":"U","NORAD_CAT_ID":36792,"ELEMENT_SET_NO":999,"REV_AT_EPOCH":5780,"BSTAR":0,"MEAN_MOTION_DOT":0,"MEAN_MOTION_DDOT":0},{"OBJECT_NAME":"NILESAT 201","OBJECT_ID":"2010-037A","EPOCH":"2026-04-26T08:23:58.775712","MEAN_MOTION":1.00270367,"ECCENTRICITY":0.000282,"INCLINATION":0.0333,"RA_OF_ASC_NODE":125.9188,"ARG_OF_PERICENTER":280.9662,"MEAN_ANOMALY":286.4936,"EPHEMERIS_TYPE":0,"CLASSIFICATION_TYPE":"U","NORAD_CAT_ID":36830,"ELEMENT_SET_NO":999,"REV_AT_EPOCH":5785,"BSTAR":0,"MEAN_MOTION_DOT":-7.0e-7,"MEAN_MOTION_DDOT":0},{"OBJECT_NAME":"RASCOM-QAF 1R","OBJECT_ID":"2010-037B","EPOCH":"2026-04-26T08:26:51.002016","MEAN_MOTION":1.00270407,"ECCENTRICITY":0.0006628,"INCLINATION":0.0144,"RA_OF_ASC_NODE":257.6295,"ARG_OF_PERICENTER":136.6794,"MEAN_ANOMALY":309.6668,"EPHEMERIS_TYPE":0,"CLASSIFICATION_TYPE":"U","NORAD_CAT_ID":36831,"ELEMENT_SET_NO":999,"REV_AT_EPOCH":5778,"BSTAR":0,"MEAN_MOTION_DOT":6.0e-8,"MEAN_MOTION_DDOT":0},{"OBJECT_NAME":"AEHF-1 (USA 214)","OBJECT_ID":"2010-039A","EPOCH":"2026-04-26T11:59:56.531904","MEAN_MOTION":1.00277092,"ECCENTRICITY":0.0004268,"INCLINATION":8.0942,"RA_OF_ASC_NODE":68.7227,"ARG_OF_PERICENTER":315.457,"MEAN_ANOMALY":40.3229,"EPHEMERIS_TYPE":0,"CLASSIFICATION_TYPE":"U","NORAD_CAT_ID":36868,"ELEMENT_SET_NO":999,"REV_AT_EPOCH":5313,"BSTAR":0,"MEAN_MOTION_DOT":1.41e-6,"MEAN_MOTION_DDOT":0},{"OBJECT_NAME":"ZHONGXING-6A","OBJECT_ID":"2010-042A","EPOCH":"2026-04-26T07:27:26.872416","MEAN_MOTION":0.99706689,"ECCENTRICITY":0.0003521,"INCLINATION":4.0945,"RA_OF_ASC_NODE":77.8516,"ARG_OF_PERICENTER":271.8196,"MEAN_ANOMALY":131.3298,"EPHEMERIS_TYPE":0,"CLASSIFICATION_TYPE":"U","NORAD_CAT_ID":37150,"ELEMENT_SET_NO":999,"REV_AT_EPOCH":5736,"BSTAR":0,"MEAN_MOTION_DOT":-2.64e-6,"MEAN_MOTION_DDOT":0}]
